<?xml version="1.0" encoding="UTF-8"?>
<ndm xmlns:xsi="https://www.w3.org/2001/XMLSchema-instance" xsi:noNamespaceSchemaLocation="https://sanaregistry.org/r/ndmxml/ndmxml-1.0-master.xsd">
<omm id="CCSDS_OMM_VERS" version="2.0">
<header><CREATION_DATE/><ORIGINATOR/></header><body><segment><metadata><OBJECT_NAME>STARLINK B</OBJECT_NAME><OBJECT_ID>2020-062B</OBJECT_ID><CENTER_NAME>EARTH</CENTER_NAME><REF_FRAME>TEME</REF_FRAME><TIME_SYSTEM>UTC</TIME_SYSTEM><MEAN_ELEMENT_THEORY>SGP4</MEAN_ELEMENT_THEORY></metadata><data><meanElements><EPOCH>2020-09-09T16:00:01.999584</EPOCH><MEAN_MOTION>15.87113680</MEAN_MOTION><ECCENTRICITY>.0041520</ECCENTRICITY><INCLINATION>52.9967</INCLINATION><RA_OF_ASC_NODE>40.0967</RA_OF_ASC_NODE><ARG_OF_PERICENTER>68.5742</ARG_OF_PERICENTER><MEAN_ANOMALY>254.4354</MEAN_ANOMALY></meanElements><tleParameters><EPHEMERIS_TYPE>0</EPHEMERIS_TYPE><CLASSIFICATION_TYPE>U</CLASSIFICATION_TYPE><NORAD_CAT_ID>46326</NORAD_CAT_ID><ELEMENT_SET_NO>999</ELEMENT_SET_NO><REV_AT_EPOCH>180</REV_AT_EPOCH><BSTAR>-.44540E-2</BSTAR><MEAN_MOTION_DOT>-1.27093E-2</MEAN_MOTION_DOT><MEAN_MOTION_DDOT>.45169E-3</MEAN_MOTION_DDOT></tleParameters></data></segment></body></omm>
<omm id="CCSDS_OMM_VERS" version="2.0">
<header><CREATION_DATE/><ORIGINATOR/></header><body><segment><metadata><OBJECT_NAME>CZ-2F R/B</OBJECT_NAME><OBJECT_ID>2020-063B</OBJECT_ID><CENTER_NAME>EARTH</CENTER_NAME><REF_FRAME>TEME</REF_FRAME><TIME_SYSTEM>UTC</TIME_SYSTEM><MEAN_ELEMENT_THEORY>SGP4</MEAN_ELEMENT_THEORY></metadata><data><meanElements><EPOCH>2020-09-09T05:39:14.632992</EPOCH><MEAN_MOTION>15.77518190</MEAN_MOTION><ECCENTRICITY>.0015807</ECCENTRICITY><INCLINATION>50.2045</INCLINATION><RA_OF_ASC_NODE>40.0695</RA_OF_ASC_NODE><ARG_OF_PERICENTER>315.6843</ARG_OF_PERICENTER><MEAN_ANOMALY>44.2871</MEAN_ANOMALY></meanElements><tleParameters><EPHEMERIS_TYPE>0</EPHEMERIS_TYPE><CLASSIFICATION_TYPE>U</CLASSIFICATION_TYPE><NORAD_CAT_ID>46390</NORAD_CAT_ID><ELEMENT_SET_NO>999</ELEMENT_SET_NO><REV_AT_EPOCH>78</REV_AT_EPOCH><BSTAR>.67681E-4</BSTAR><MEAN_MOTION_DOT>1.0937E-4</MEAN_MOTION_DOT><MEAN_MOTION_DDOT>0</MEAN_MOTION_DDOT></tleParameters></data></segment></body></omm>
<omm id="CCSDS_OMM_VERS" version="2.0">
<header><CREATION_DATE/><ORIGINATOR/></header><body><segment><metadata><OBJECT_NAME>CZ-2F DEB</OBJECT_NAME><OBJECT_ID>2020-063C</OBJECT_ID><CENTER_NAME>EARTH</CENTER_NAME><REF_FRAME>TEME</REF_FRAME><TIME_SYSTEM>UTC</TIME_SYSTEM><MEAN_ELEMENT_THEORY>SGP4</MEAN_ELEMENT_THEORY></metadata><data><meanElements><EPOCH>2020-09-08T23:24:21.501504</EPOCH><MEAN_MOTION>15.37242808</MEAN_MOTION><ECCENTRICITY>.0159867</ECCENTRICITY><INCLINATION>49.9029</INCLINATION><RA_OF_ASC_NODE>43.0188</RA_OF_ASC_NODE><ARG_OF_PERICENTER>164.4089</ARG_OF_PERICENTER><MEAN_ANOMALY>196.1844</MEAN_ANOMALY></meanElements><tleParameters><EPHEMERIS_TYPE>0</EPHEMERIS_TYPE><CLASSIFICATION_TYPE>U</CLASSIFICATION_TYPE><NORAD_CAT_ID>46391</NORAD_CAT_ID><ELEMENT_SET_NO>999</ELEMENT_SET_NO><REV_AT_EPOCH>71</REV_AT_EPOCH><BSTAR>.10971E-2</BSTAR><MEAN_MOTION_DOT>6.3289E-4</MEAN_MOTION_DOT><MEAN_MOTION_DDOT>0</MEAN_MOTION_DDOT></tleParameters></data></segment></body></omm>
<omm id="CCSDS_OMM_VERS" version="2.0">
<header><CREATION_DATE/><ORIGINATOR/></header><body><segment><metadata><OBJECT_NAME>CZ-2F DEB</OBJECT_NAME><OBJECT_ID>2020-063D</OBJECT_ID><CENTER_NAME>EARTH</CENTER_NAME><REF_FRAME>TEME</REF_FRAME><TIME_SYSTEM>UTC</TIME_SYSTEM><MEAN_ELEMENT_THEORY>SGP4</MEAN_ELEMENT_THEORY></metadata><data><meanElements><EPOCH>2020-09-08T19:33:22.595040</EPOCH><MEAN_MOTION>15.47658049</MEAN_MOTION><ECCENTRICITY>.0116489</ECCENTRICITY><INCLINATION>49.8676</INCLINATION><RA_OF_ASC_NODE>43.4884</RA_OF_ASC_NODE><ARG_OF_PERICENTER>170.1718</ARG_OF_PERICENTER><MEAN_ANOMALY>190.1550</MEAN_ANOMALY></meanElements><tleParameters><EPHEMERIS_TYPE>0</EPHEMERIS_TYPE><CLASSIFICATION_TYPE>U</CLASSIFICATION_TYPE><NORAD_CAT_ID>46392</NORAD_CAT_ID><ELEMENT_SET_NO>999</ELEMENT_SET_NO><REV_AT_EPOCH>69</REV_AT_EPOCH><BSTAR>.11638E-2</BSTAR><MEAN_MOTION_DOT>8.0722E-4</MEAN_MOTION_DOT><MEAN_MOTION_DDOT>0</MEAN_MOTION_DDOT></tleParameters></data></segment></body></omm>
<omm id="CCSDS_OMM_VERS" version="2.0">
<header><CREATION_DATE/><ORIGINATOR/></header><body><segment><metadata><OBJECT_NAME>CZ-2F DEB</OBJECT_NAME><OBJECT_ID>2020-063E</OBJECT_ID><CENTER_NAME>EARTH</CENTER_NAME><REF_FRAME>TEME</REF_FRAME><TIME_SYSTEM>UTC</TIME_SYSTEM><MEAN_ELEMENT_THEORY>SGP4</MEAN_ELEMENT_THEORY></metadata><data><meanElements><EPOCH>2020-09-08T23:10:56.891136</EPOCH><MEAN_MOTION>15.62037376</MEAN_MOTION><ECCENTRICITY>.0106924</ECCENTRICITY><INCLINATION>50.4194</INCLINATION><RA_OF_ASC_NODE>41.9917</RA_OF_ASC_NODE><ARG_OF_PERICENTER>223.4398</ARG_OF_PERICENTER><MEAN_ANOMALY>135.8113</MEAN_ANOMALY></meanElements><tleParameters><EPHEMERIS_TYPE>0</EPHEMERIS_TYPE><CLASSIFICATION_TYPE>U</CLASSIFICATION_TYPE><NORAD_CAT_ID>46393</NORAD_CAT_ID><ELEMENT_SET_NO>999</ELEMENT_SET_NO><REV_AT_EPOCH>55</REV_AT_EPOCH><BSTAR>.11509E-2</BSTAR><MEAN_MOTION_DOT>1.3907E-3</MEAN_MOTION_DOT><MEAN_MOTION_DDOT>0</MEAN_MOTION_DDOT></tleParameters></data></segment></body></omm>
<omm id="CCSDS_OMM_VERS" version="2.0">
<header><CREATION_DATE/><ORIGINATOR/></header><body><segment><metadata><OBJECT_NAME>CZ-2F DEB</OBJECT_NAME><OBJECT_ID>2020-063F</OBJECT_ID><CENTER_NAME>EARTH</CENTER_NAME><REF_FRAME>TEME</REF_FRAME><TIME_SYSTEM>UTC</TIME_SYSTEM><MEAN_ELEMENT_THEORY>SGP4</MEAN_ELEMENT_THEORY></metadata><data><meanElements><EPOCH>2020-09-08T22:09:20.698272</EPOCH><MEAN_MOTION>15.54698071</MEAN_MOTION><ECCENTRICITY>.0113865</ECCENTRICITY><INCLINATION>50.4633</INCLINATION><RA_OF_ASC_NODE>42.4515</RA_OF_ASC_NODE><ARG_OF_PERICENTER>205.6064</ARG_OF_PERICENTER><MEAN_ANOMALY>153.9505</MEAN_ANOMALY></meanElements><tleParameters><EPHEMERIS_TYPE>0</EPHEMERIS_TYPE><CLASSIFICATION_TYPE>U</CLASSIFICATION_TYPE><NORAD_CAT_ID>46394</NORAD_CAT_ID><ELEMENT_SET_NO>999</ELEMENT_SET_NO><REV_AT_EPOCH>58</REV_AT_EPOCH><BSTAR>.10856E-2</BSTAR><MEAN_MOTION_DOT>9.8914E-4</MEAN_MOTION_DOT><MEAN_MOTION_DDOT>0</MEAN_MOTION_DDOT></tleParameters></data></segment></body></omm>
<omm id="CCSDS_OMM_VERS" version="2.0">
<header><CREATION_DATE/><ORIGINATOR/></header><body><segment><metadata><OBJECT_NAME>2020-063G</OBJECT_NAME><OBJECT_ID>2020-063G</OBJECT_ID><CENTER_NAME>EARTH</CENTER_NAME><REF_FRAME>TEME</REF_FRAME><TIME_SYSTEM>UTC</TIME_SYSTEM><MEAN_ELEMENT_THEORY>SGP4</MEAN_ELEMENT_THEORY></metadata><data><meanElements><EPOCH>2020-09-09T16:20:54.781440</EPOCH><MEAN_MOTION>15.76765193</MEAN_MOTION><ECCENTRICITY>.0011906</ECCENTRICITY><INCLINATION>50.2069</INCLINATION><RA_OF_ASC_NODE>37.7335</RA_OF_ASC_NODE><ARG_OF_PERICENTER>312.4886</ARG_OF_PERICENTER><MEAN_ANOMALY>47.5087</MEAN_ANOMALY></meanElements><tleParameters><EPHEMERIS_TYPE>0</EPHEMERIS_TYPE><CLASSIFICATION_TYPE>U</CLASSIFICATION_TYPE><NORAD_CAT_ID>46395</NORAD_CAT_ID><ELEMENT_SET_NO>999</ELEMENT_SET_NO><REV_AT_EPOCH>85</REV_AT_EPOCH><BSTAR>.48268E-4</BSTAR><MEAN_MOTION_DOT>7.312E-5</MEAN_MOTION_DOT><MEAN_MOTION_DDOT>0</MEAN_MOTION_DDOT></tleParameters></data></segment></body></omm>
<omm id="CCSDS_OMM_VERS" version="2.0">
<header><CREATION_DATE/><ORIGINATOR/></header><body><segment><metadata><OBJECT_NAME>GAOFEN 11-2</OBJECT_NAME><OBJECT_ID>2020-064A</OBJECT_ID><CENTER_NAME>EARTH</CENTER_NAME><REF_FRAME>TEME</REF_FRAME><TIME_SYSTEM>UTC</TIME_SYSTEM><MEAN_ELEMENT_THEORY>SGP4</MEAN_ELEMENT_THEORY></metadata><data><meanElements><EPOCH>2020-09-09T04:51:50.673312</EPOCH><MEAN_MOTION>15.31798244</MEAN_MOTION><ECCENTRICITY>.0326550</ECCENTRICITY><INCLINATION>97.3306</INCLINATION><RA_OF_ASC_NODE>5.3398</RA_OF_ASC_NODE><ARG_OF_PERICENTER>164.6036</ARG_OF_PERICENTER><MEAN_ANOMALY>289.2895</MEAN_ANOMALY></meanElements><tleParameters><EPHEMERIS_TYPE>0</EPHEMERIS_TYPE><CLASSIFICATION_TYPE>U</CLASSIFICATION_TYPE><NORAD_CAT_ID>46396</NORAD_CAT_ID><ELEMENT_SET_NO>999</ELEMENT_SET_NO><REV_AT_EPOCH>30</REV_AT_EPOCH><BSTAR>.00000E+0</BSTAR><MEAN_MOTION_DOT>-5.97E-6</MEAN_MOTION_DOT><MEAN_MOTION_DDOT>.18911E-5</MEAN_MOTION_DDOT></tleParameters></data></segment></body></omm>

</ndm>
